{"type": "FeatureCollection", "features": [ {"type": "Feature", "properties": {"norad_id": 66593, "name": "STARLINK-36031", "group": "last-30-days", "lat": 42.399383392013355, "lon": -9.526251399520813, "alt_km": 331.2648922065855, "timestamp": "2025-12-03T06:58:42.033542+00:00", "meta": {"OBJECT_NAME": "STARLINK-36031", "OBJECT_ID": "2025-270F", "EPOCH": "2025-12-02T20:00:03.000384", "MEAN_MOTION": 15.79416734, "ECCENTRICITY": 0.0001661, "INCLINATION": 42.9987, "RA_OF_ASC_NODE": 251.7706, "ARG_OF_PERICENTER": 262.9904, "MEAN_ANOMALY": 112.9385, "EPHEMERIS_TYPE": 0, "CLASSIFICATION_TYPE": "U", "NORAD_CAT_ID": 66593, "ELEMENT_SET_NO": 999, "REV_AT_EPOCH": 280, "BSTAR": -0.010033, "MEAN_MOTION_DOT": -0.0163123, "MEAN_MOTION_DDOT": 0}, "tle": {"line1": "1 66593U 25270F   25336.83336806 -.01631230  00000+0 -10033-1 0  9996", "line2": "2 66593  42.9987 251.7706 0001661 262.9904 112.9385 15.79416734  2800"}}, "geometry": {"type": "Point", "coordinates": [-9.526251399520813, 42.399383392013355]}}, {"type": "Feature", "properties": {"norad_id": 66594, "name": "STARLINK-36032", "group": "last-30-days", "lat": 42.08044705658178, "lon": -6.731764975996055, "alt_km": 331.46522401973834, "timestamp": "2025-12-03T06:58:42.033551+00:00", "meta": {"OBJECT_NAME": "STARLINK-36032", "OBJECT_ID": "2025-270G", "EPOCH": "2025-12-02T20:00:03.000384", "MEAN_MOTION": 15.79382901, "ECCENTRICITY": 0.0001682, "INCLINATION": 42.9988, "RA_OF_ASC_NODE": 251.765, "ARG_OF_PERICENTER": 261.0021, "MEAN_ANOMALY": 117.0989, "EPHEMERIS_TYPE": 0, "CLASSIFICATION_TYPE": "U", "NORAD_CAT_ID": 66594, "ELEMENT_SET_NO": 999, "REV_AT_EPOCH": 254, "BSTAR": -0.010199, "MEAN_MOTION_DOT": -0.01686069, "MEAN_MOTION_DDOT": 0}, "tle": {"line1": "1 66594U 25270G   25336.83336806 -.01686069  00000+0 -10199-1 0  9990", "line2": "2 66594  42.9988 251.7650 0001682 261.0021 117.0989 15.79382901  2548"}}, "geometry": {"type": "Point", "coordinates": [-6.731764975996055, 42.08044705658178]}}, {"type": "Feature", "properties": {"norad_id": 66595, "name": "STARLINK-35711", "group": "last-30-days", "lat": 41.69799967715315, "lon": -3.994501537678036, "alt_km": 331.6913712720707, "timestamp": "2025-12-03T06:58:42.033563+00:00", "meta": {"OBJECT_NAME": "STARLINK-35711", "OBJECT_ID": "2025-270H", "EPOCH": "2025-12-02T20:00:03.000384", "MEAN_MOTION": 15.79337951, "ECCENTRICITY": 0.0001739, "INCLINATION": 42.9987, "RA_OF_ASC_NODE": 251.7595, "ARG_OF_PERICENTER": 263.2505, "MEAN_ANOMALY": 116.9983, "EPHEMERIS_TYPE": 0, "CLASSIFICATION_TYPE": "U", "NORAD_CAT_ID": 66595, "ELEMENT_SET_NO": 999, "REV_AT_EPOCH": 291, "BSTAR": -0.010215, "MEAN_MOTION_DOT": -0.0168536, "MEAN_MOTION_DDOT": 0}, "tle": {"line1": "1 66595U 25270H   25336.83336806 -.01685360  00000+0 -10215-1 0  9993", "line2": "2 66595  42.9987 251.7595 0001739 263.2505 116.9983 15.79337951  2918"}}, "geometry": {"type": "Point", "coordinates": [-3.994501537678036, 41.69799967715315]}}, {"type": "Feature", "properties": {"norad_id": 66596, "name": "STARLINK-35811", "group": "last-30-days", "lat": 41.2600890721723, "lon": -1.3415268080947773, "alt_km": 331.8593594766153, "timestamp": "2025-12-03T06:58:42.033575+00:00", "meta": {"OBJECT_NAME": "STARLINK-35811", "OBJECT_ID": "2025-270J", "EPOCH": "2025-12-02T20:00:03.000384", "MEAN_MOTION": 15.79319348, "ECCENTRICITY": 0.0001676, "INCLINATION": 42.9988, "RA_OF_ASC_NODE": 251.754, "ARG_OF_PERICENTER": 269.4097, "MEAN_ANOMALY": 112.9205, "EPHEMERIS_TYPE": 0, "CLASSIFICATION_TYPE": "U", "NORAD_CAT_ID": 66596, "ELEMENT_SET_NO": 999, "REV_AT_EPOCH": 291, "BSTAR": -0.010348, "MEAN_MOTION_DOT": -0.0170348, "MEAN_MOTION_DDOT": 0}, "tle": {"line1": "1 66596U 25270J   25336.83336806 -.01703480  00000+0 -10348-1 0  9995", "line2": "2 66596  42.9988 251.7540 0001676 269.4097 112.9205 15.79319348  2917"}}, "geometry": {"type": "Point", "coordinates": [-1.3415268080947773, 41.2600890721723]}}, {"type": "Feature", "properties": {"norad_id": 66597, "name": "STARLINK-35820", "group": "last-30-days", "lat": 40.78333562357767, "lon": 1.1687779644101997, "alt_km": 331.9861145243776, "timestamp": "2025-12-03T06:58:42.033585+00:00", "meta": {"OBJECT_NAME": "STARLINK-35820", "OBJECT_ID": "2025-270K", "EPOCH": "2025-12-02T20:00:03.000384", "MEAN_MOTION": 15.79312144, "ECCENTRICITY": 0.0001806, "INCLINATION": 42.999, "RA_OF_ASC_NODE": 251.7492, "ARG_OF_PERICENTER": 263.7631, "MEAN_ANOMALY": 120.5385, "EPHEMERIS_TYPE": 0, "CLASSIFICATION_TYPE": "U", "NORAD_CAT_ID": 66597, "ELEMENT_SET_NO": 999, "REV_AT_EPOCH": 291, "BSTAR": -0.010365, "MEAN_MOTION_DOT": -0.01705603, "MEAN_MOTION_DDOT": 0}, "tle": {"line1": "1 66597U 25270K   25336.83336806 -.01705603  00000+0 -10365-1 0  9994", "line2": "2 66597  42.9990 251.7492 0001806 263.7631 120.5385 15.79312144  2914"}}, "geometry": {"type": "Point", "coordinates": [1.1687779644101997, 40.78333562357767]}}, {"type": "Feature", "properties": {"norad_id": 66598, "name": "STARLINK-35981", "group": "last-30-days", "lat": 40.227915606498186, "lon": 3.7479937833415695, "alt_km": 331.9831340637702, "timestamp": "2025-12-03T06:58:42.033594+00:00", "meta": {"OBJECT_NAME": "STARLINK-35981", "OBJECT_ID": "2025-270L", "EPOCH": "2025-12-02T20:00:03.000384", "MEAN_MOTION": 15.79280057, "ECCENTRICITY": 0.0001648, "INCLINATION": 42.9987, "RA_OF_ASC_NODE": 251.7438, "ARG_OF_PERICENTER": 257.2191, "MEAN_ANOMALY": 129.1843, "EPHEMERIS_TYPE": 0, "CLASSIFICATION_TYPE": "U", "NORAD_CAT_ID": 66598, "ELEMENT_SET_NO": 999, "REV_AT_EPOCH": 264, "BSTAR": -0.010431, "MEAN_MOTION_DOT": -0.01712747, "MEAN_MOTION_DDOT": 0}, "tle": {"line1": "1 66598U 25270L   25336.83336806 -.01712747  00000+0 -10431-1 0  9996", "line2": "2 66598  42.9987 251.7438 0001648 257.2191 129.1843 15.79280057  2645"}}, "geometry": {"type": "Point", "coordinates": [3.7479937833415695, 40.227915606498186]}}, {"type": "Feature", "properties": {"norad_id": 66599, "name": "STARLINK-35930", "group": "last-30-days", "lat": 39.652513928992924, "lon": 6.141756451974542, "alt_km": 332.01212056832355, "timestamp": "2025-12-03T06:58:42.033608+00:00", "meta": {"OBJECT_NAME": "STARLINK-35930", "OBJECT_ID": "2025-270M", "EPOCH": "2025-12-02T20:00:03.000384", "MEAN_MOTION": 15.79294485, "ECCENTRICITY": 0.0001561, "INCLINATION": 42.999, "RA_OF_ASC_NODE": 251.7392, "ARG_OF_PERICENTER": 258.3544, "MEAN_ANOMALY": 129.9609, "EPHEMERIS_TYPE": 0, "CLASSIFICATION_TYPE": "U", "NORAD_CAT_ID": 66599, "ELEMENT_SET_NO": 999, "REV_AT_EPOCH": 280, "BSTAR": -0.010513, "MEAN_MOTION_DOT": -0.01725625, "MEAN_MOTION_DDOT": 0}, "tle": {"line1": "1 66599U 25270M   25336.83336806 -.01725625  00000+0 -10513-1 0  9997", "line2": "2 66599  42.9990 251.7392 0001561 258.3544 129.9609 15.79294485  2803"}}, "geometry": {"type": "Point", "coordinates": [6.141756451974542, 39.652513928992924]}}, {"type": "Feature", "properties": {"norad_id": 66600, "name": "STARLINK-35980", "group": "last-30-days", "lat": 38.997877359052026, "lon": 8.60291567126261, "alt_km": 332.2888681074355, "timestamp": "2025-12-03T06:58:42.033618+00:00", "meta": {"OBJECT_NAME": "STARLINK-35980", "OBJECT_ID": "2025-270N", "EPOCH": "2025-12-02T20:00:03.000384", "MEAN_MOTION": 15.79267926, "ECCENTRICITY": 0.0001679, "INCLINATION": 42.9989, "RA_OF_ASC_NODE": 251.7339, "ARG_OF_PERICENTER": 260.7802, "MEAN_ANOMALY": 129.5985, "EPHEMERIS_TYPE": 0, "CLASSIFICATION_TYPE": "U", "NORAD_CAT_ID": 66600, "ELEMENT_SET_NO": 999, "REV_AT_EPOCH": 271, "BSTAR": -0.010562, "MEAN_MOTION_DOT": -0.01730999, "MEAN_MOTION_DDOT": 0}, "tle": {"line1": "1 66600U 25270N   25336.83336806 -.01730999  00000+0 -10562-1 0  9994", "line2": "2 66600  42.9989 251.7339 0001679 260.7802 129.5985 15.79267926  2712"}}, "geometry": {"type": "Point", "coordinates": [8.60291567126261, 38.997877359052026]}}, {"type": "Feature", "properties": {"norad_id": 66601, "name": "STARLINK-35978", "group": "last-30-days", "lat": 38.314776924628845, "lon": 10.943801316794609, "alt_km": 332.55644771447896, "timestamp": "2025-12-03T06:58:42.033628+00:00", "meta": {"OBJECT_NAME": "STARLINK-35978", "OBJECT_ID": "2025-270P", "EPOCH": "2025-12-02T20:00:03.000384", "MEAN_MOTION": 15.792722, "ECCENTRICITY": 0.0001758, "INCLINATION": 42.9989, "RA_OF_ASC_NODE": 251.7289, "ARG_OF_PERICENTER": 269.2682, "MEAN_ANOMALY": 123.0635, "EPHEMERIS_TYPE": 0, "CLASSIFICATION_TYPE": "U", "NORAD_CAT_ID": 66601, "ELEMENT_SET_NO": 999, "REV_AT_EPOCH": 264, "BSTAR": -0.010636, "MEAN_MOTION_DOT": -0.01742074, "MEAN_MOTION_DDOT": 0}, "tle": {"line1": "1 66601U 25270P   25336.83336806 -.01742074  00000+0 -10636-1 0  9994", "line2": "2 66601  42.9989 251.7289 0001758 269.2682 123.0635 15.79272200  2649"}}, "geometry": {"type": "Point", "coordinates": [10.943801316794609, 38.314776924628845]}}, {"type": "Feature", "properties": {"norad_id": 66602, "name": "STARLINK-36050", "group": "last-30-days", "lat": 37.54891325108759, "lon": 13.351114269931184, "alt_km": 332.5350453955025, "timestamp": "2025-12-03T06:58:42.033637+00:00", "meta": {"OBJECT_NAME": "STARLINK-36050", "OBJECT_ID": "2025-270Q", "EPOCH": "2025-12-02T20:00:03.000384", "MEAN_MOTION": 15.79230027, "ECCENTRICITY": 0.0001596, "INCLINATION": 42.9989, "RA_OF_ASC_NODE": 251.7236, "ARG_OF_PERICENTER": 258.2957, "MEAN_ANOMALY": 136.1631, "EPHEMERIS_TYPE": 0, "CLASSIFICATION_TYPE": "U", "NORAD_CAT_ID": 66602, "ELEMENT_SET_NO": 999, "REV_AT_EPOCH": 271, "BSTAR": -0.010692, "MEAN_MOTION_DOT": -0.01747004, "MEAN_MOTION_DDOT": 0}, "tle": {"line1": "1 66602U 25270Q   25336.83336806 -.01747004  00000+0 -10692-1 0  9995", "line2": "2 66602  42.9989 251.7236 0001596 258.2957 136.1631 15.79230027  2715"}}, "geometry": {"type": "Point", "coordinates": [13.351114269931184, 37.54891325108759]}}]}